     2.11           N: GPS NAV DATA                         RINEX VERSION / TYPE
teqc  2018Jan11                         20180330 15:49:07UTCPGM / RUN BY / DATE
Linux 2.4.21-27.ELsmp|Opteron|gcc -static|Linux 64|=+       COMMENT
     2.10           N: GPS NAV DATA                         COMMENT
rvacn.e(1404.07)                        2018-03-30T12:57 UTCCOMMENT
This file contains the validated broadcast navigation       COMMENT
messages from the following files:                          COMMENT
abmf0850.18n, albh0850.18n, alic0850.18n, badg0850.18n,     COMMENT
bjco0850.18n, cas10850.18n, chpi0850.18n, chum0850.18n,     COMMENT
chur0850.18n, cnmr0850.18n, coco0850.18n, cro10850.18n,     COMMENT
daej0850.18n, darw0850.18n, dav10850.18n, dgar0850.18n,     COMMENT
drao0850.18n, faa10850.18n, fair0850.18n, falk0850.18n,     COMMENT
flin0850.18n, func0850.18n, glps0850.18n, gode0850.18n,     COMMENT
godz0850.18n, gol20850.18n, gold0850.18n, guam0850.18n,     COMMENT
guat0850.18n, harb0850.18n, hlfx0850.18n, hnlc0850.18n,     COMMENT
hob20850.18n, holb0850.18n, hrao0850.18n, hyde0850.18n,     COMMENT
iisc0850.18n, kat10850.18n, kely0850.18n, kerg0850.18n,     COMMENT
kiri0850.18n, kiru0850.18n, kokb0850.18n, kokv0850.18n,     COMMENT
kour0850.18n, krgg0850.18n, laut0850.18n, lmmf0850.18n,     COMMENT
lpal0850.18n, mac10850.18n, mal20850.18n, mas10850.18n,     COMMENT
mat10850.18n, mate0850.18n, maui0850.18n, maw10850.18n,     COMMENT
mbar0850.18n, mcil0850.18n, mcm40850.18n, mdvj0850.18n,     COMMENT
mkea0850.18n, mobs0850.18n, nain0850.18n, nano0850.18n,     COMMENT
naur0850.18n, nium0850.18n, nklg0850.18n, nnor0850.18n,     COMMENT
not10850.18n, nya10850.18n, nyal0850.18n, ohi20850.18n,     COMMENT
ohi30850.18n, pert0850.18n, pie10850.18n, pohn0850.18n,     COMMENT
pol20850.18n, qaq10850.18n, qiki0850.18n, reun0850.18n,     COMMENT
sant0850.18n, sch20850.18n, scor0850.18n, sfer0850.18n,     COMMENT
shao0850.18n, sthl0850.18n, stjo0850.18n, suth0850.18n,     COMMENT
sydn0850.18n, syog0850.18n, tid10850.18n, tidb0850.18n,     COMMENT
tow20850.18n, tro10850.18n, tuva0850.18n, vndp0850.18n,     COMMENT
whit0850.18n, xmis0850.18n, yar20850.18n, yell0850.18n      COMMENT
    1.1176D-08  7.4506D-09 -5.9605D-08 -5.9605D-08          ION ALPHA
    9.0112D+04  1.6384D+04 -1.9661D+05 -6.5536D+04          ION BETA
    9.313225746155D-10-2.664535259100D-15   319488     1994 DELTA-UTC: A0,A1,T,W
                                                            END OF HEADER
20 18  3 26 14  0  0.0 5.041835829616D-04 1.023181539495D-12 0.000000000000D+00
    3.300000000000D+01-4.987500000000D+01 5.180929907311D-09 2.409847164356D+00
   -2.650544047356D-06 4.309722105972D-03 1.056492328644D-05 5.154826257706D+03
    1.368000000000D+05 9.313225746155D-08-6.844251730100D-01-2.980232238770D-08
    9.282527940948D-01 1.585937500000D+02 1.903964546623D+00-8.170339960145D-09
    2.407243016034D-10 1.000000000000D+00 1.994000000000D+03 0.000000000000D+00
    2.000000000000D+00 0.000000000000D+00-8.381903171539D-09 3.300000000000D+01
    0.000000000000D+00
21 18  3 26 14  0  0.0-4.150210879743D-04 4.547473508865D-12 0.000000000000D+00
    4.500000000000D+01-8.753125000000D+01 5.059853425138D-09-1.025638026169D-01
   -4.630535840988D-06 2.449734206311D-02 5.928799510002D-06 5.153737230301D+03
    1.368000000000D+05-4.917383193970D-07-1.672584240087D+00 6.705522537231D-08
    9.428228027770D-01 2.617187500000D+02-1.576165996863D+00-8.830724596010D-09
   -1.107188993266D-11 1.000000000000D+00 1.994000000000D+03 0.000000000000D+00
    2.000000000000D+00 0.000000000000D+00-1.024454832077D-08 4.500000000000D+01
    1.296300000000D+05
22 18  3 26 14  0  0.0-3.362838178873D-04-1.307398633799D-11 0.000000000000D+00
    1.010000000000D+02-2.984375000000D+01 5.217717338871D-09-3.077371756817D+00
   -1.840293407440D-06 7.399334106594D-03 1.088157296181D-05 5.153562107086D+03
    1.368000000000D+05 9.499490261078D-08-6.342419919362D-01 1.862645149231D-08
    9.250216542477D-01 1.476250000000D+02-1.586809384203D+00-8.198198630737D-09
    3.392998474863D-10 1.000000000000D+00 1.994000000000D+03 0.000000000000D+00
    2.000000000000D+00 0.000000000000D+00-1.769512891769D-08 1.010000000000D+02
    1.296000000000D+05 4.000000000000D+00
23 18  3 26 14  0  0.0-2.183821052313D-04 2.273736754432D-13 0.000000000000D+00
    4.600000000000D+01 2.618750000000D+01 5.305578141483D-09 2.528074446940D+00
    1.242384314537D-06 1.217123738024D-02 6.914138793945D-06 5.153568380356D+03
    1.368000000000D+05-7.636845111847D-08 4.557501048269D-01-2.086162567139D-07
    9.439529698987D-01 2.398750000000D+02-2.382151330942D+00-8.212842097839D-09
    1.903650723265D-10 1.000000000000D+00 1.994000000000D+03 0.000000000000D+00
    2.000000000000D+00 0.000000000000D+00-2.002343535423D-08 4.600000000000D+01
    1.350300000000D+05 4.000000000000D+00
24 18  3 26 14  0  0.0-4.773773252964D-05-4.547473508865D-13 0.000000000000D+00
    7.100000000000D+01-9.343750000000D+00 5.214145559762D-09 1.914691955200D+00
   -4.637986421585D-07 6.888175383210D-03 8.007511496544D-06 5.153651220322D+03
    1.368000000000D+05-1.750886440277D-07 1.476243064203D+00 2.421438694000D-08
    9.419397049639D-01 2.170625000000D+02 5.424474505194D-01-8.375706350705D-09
   -5.482371223664D-10 1.000000000000D+00 1.994000000000D+03 0.000000000000D+00
    2.000000000000D+00 0.000000000000D+00 2.793967723846D-09 7.100000000000D+01
    0.000000000000D+00
25 18  3 26 14  0  0.0-5.596121773124D-04-6.025402399246D-12 0.000000000000D+00
    7.300000000000D+01 6.159375000000D+01 4.116242902086D-09-6.138312681933D-02
    3.306195139885D-06 7.376374676824D-03 9.506940841675D-06 5.153670839310D+03
    1.368000000000D+05 7.450580596924D-09 2.567310053192D+00 1.080334186554D-07
    9.749184383862D-01 2.011250000000D+02 8.304347006529D-01-7.983547156698D-09
   -1.221479445368D-10 1.000000000000D+00 1.994000000000D+03 0.000000000000D+00
    2.000000000000D+00 0.000000000000D+00 5.587935447693D-09 7.300000000000D+01
    1.296300000000D+05
26 18  3 26 14  0  0.0-2.044476568699D-04 1.318767317571D-11 0.000000000000D+00
    4.800000000000D+01 5.653125000000D+01 4.337680881150D-09-5.873291744690D-01
    2.928078174591D-06 2.768221311271D-03 9.110197424889D-06 5.153636764526D+03
    1.368000000000D+05 6.146728992462D-08 2.546478772685D+00-3.352761268616D-08
    9.564763912980D-01 2.036875000000D+02 7.904049390812D-02-8.050335509324D-09
   -1.728643478360D-10 1.000000000000D+00 1.994000000000D+03 0.000000000000D+00
    2.000000000000D+00 0.000000000000D+00 7.450580596924D-09 4.800000000000D+01
    1.321500000000D+05
27 18  3 26 14  0  0.0 3.699888475239D-04 3.410605131648D-13 0.000000000000D+00
    3.700000000000D+01 2.556250000000D+01 4.160887603384D-09-2.380029147367D+00
    1.357868313789D-06 5.733239930123D-03 3.835186362267D-06 5.153680953979D+03
    1.368000000000D+05 3.725290298462D-09-2.676738170260D+00-3.539025783539D-08
    9.772081977639D-01 3.157812500000D+02 3.733150294751D-01-8.091051310478D-09
    2.235807416067D-10 1.000000000000D+00 1.994000000000D+03 0.000000000000D+00
    2.000000000000D+00 0.000000000000D+00 1.862645149231D-09 3.700000000000D+01
    1.296000000000D+05 4.000000000000D+00
28 18  3 26 14  0  0.0 7.005552761260D-04 3.524291969370D-12 0.000000000000D+00
    8.600000000000D+01 9.278125000000D+01 3.683010555030D-09-1.548172708320D+00
    4.930421710010D-06 1.957745710390D-02 9.097158908840D-06 5.153685607910D+03
    1.368000000000D+05-1.490116119380D-08 2.649461840310D+00 4.991888999940D-07
    9.865770455230D-01 2.215625000000D+02-1.523610436650D+00-7.817111328350D-09
   -1.003613233090D-10 1.000000000000D+00 1.994000000000D+03 0.000000000000D+00
    4.000000000000D+00 0.000000000000D+00-1.117587089540D-08 8.600000000000D+01
    1.368000000000D+05
29 18  3 26 14  0  0.0 4.763263277709D-04-6.025402399246D-12 0.000000000000D+00
    6.300000000000D+01 3.000000000000D+01 4.195174874155D-09-1.137041206993D+00
    1.495704054832D-06 6.183366058394D-04 3.512948751450D-06 5.153716695786D+03
    1.368000000000D+05 5.587935447693D-08-2.612539754150D+00 5.960464477539D-08
    9.836646009161D-01 3.235937500000D+02 8.511724319369D-01-8.157482689342D-09
    1.339341554329D-10 1.000000000000D+00 1.994000000000D+03 0.000000000000D+00
    2.000000000000D+00 0.000000000000D+00-1.024454832077D-08 6.300000000000D+01
    1.296300000000D+05
31 18  3 26 14  0  0.0 1.328159123659D-04-2.614797267597D-12 0.000000000000D+00
    4.100000000000D+01-3.343750000000D+00 4.655908103501D-09 7.873755619698D-01
   -1.173466444016D-07 8.776384871453D-03 7.906928658485D-06 5.153627828598D+03
    1.368000000000D+05 1.322478055954D-07 1.547195961802D+00 8.195638656616D-08
    9.635349637159D-01 2.240937500000D+02-1.371560469056D-01-8.139267926310D-09
   -5.382367329609D-10 1.000000000000D+00 1.994000000000D+03 0.000000000000D+00
    2.000000000000D+00 0.000000000000D+00-1.350417733192D-08 4.100000000000D+01
    1.296300000000D+05
32 18  3 26 14  0  0.0-5.258726887405D-04 2.728484105319D-12 0.000000000000D+00
    3.800000000000D+01 2.625000000000D+01 5.037709804867D-09-1.657903530931D+00
    1.428648829460D-06 1.872066175565D-03 6.724148988724D-06 5.153642108917D+03
    1.368000000000D+05 6.891787052155D-08 4.614678221242D-01 5.587935447693D-08
    9.575164704615D-01 2.480000000000D+02-2.640790912730D+00-8.275344853814D-09
    2.392956943709D-10 1.000000000000D+00 1.994000000000D+03 0.000000000000D+00
    2.000000000000D+00 0.000000000000D+00 4.656612873077D-10 3.800000000000D+01
    1.296300000000D+05
